norad_id,name,regime,epoch,line1,line2,inclination,eccentricity,mean_motion,raan,arg_pericenter,mean_anomaly
28082,CHINASAT 20,EGO,25245.20012484,1 28082U 03052A   25245.20012484 -.00000237  00000-0  00000-0 0 37173,2 28082   9.8314  52.5501 0005956 125.1302  41.9539  0.99114567 79531,9.8314,0.0005956,0.99114567,52.5501,125.1302,41.9539
28082,CHINASAT 20,EGO,25245.27136515,1 28082U 03052A   25245.27136515 -.00000238  00000-0  00000-0 0 37184,2 28082   9.8315  52.5494 0005959 125.1897  67.3149  0.99114572 79530,9.8315,0.0005959,0.99114572,52.5494,125.1897,67.3149
28082,CHINASAT 20,EGO,25245.77057861,1 28082U 03052A   25245.77057861 -.00000248  00000-0  00000-0 0 37209,2 28082   9.8326  52.5447 0005969 125.4040 245.2336  0.99114517 79549,9.8326,0.0005969,0.99114517,52.5447,125.404,245.2336
28082,CHINASAT 20,EGO,25246.19854075,1 28082U 03052A   25246.19854075 -.00000256  00000-0  00000-0 0 37218,2 28082   9.8335  52.5407 0005999 125.6531  37.6931  0.99114471 79548,9.8335,0.0005999,0.99114471,52.5407,125.6531,37.6931
28082,CHINASAT 20,EGO,25246.89982954,1 28082U 03052A   25246.89982954 -.00000267  00000-0  00000-0 0 37259,2 28082   9.8349  52.5340 0006026 126.2403 287.3448  0.99114352 79552,9.8349,0.0006026,0.99114352,52.534,126.2403,287.3448
28082,CHINASAT 20,EGO,25247.88928318,1 28082U 03052A   25247.88928318 -.00000280  00000-0  00000-0 0 37281,2 28082   9.8371  52.5246 0006071 127.1012 279.5471  0.99114099 79566,9.8371,0.0006071,0.99114099,52.5246,127.1012,279.5471
28082,CHINASAT 20,EGO,25248.26647610,1 28082U 03052A   25248.26647610 -.00000284  00000-0  00000-0 0 37292,2 28082   9.8379  52.5210 0006099 127.4907  53.7495  0.99113978 79564,9.8379,0.0006099,0.99113978,52.521,127.4907,53.7495
28082,CHINASAT 20,EGO,25248.76563281,1 28082U 03052A   25248.76563281 -.00000288  00000-0  00000-0 0 37304,2 28082   9.8391  52.5163 0006112 127.9220 231.4302  0.99113812 79563,9.8391,0.0006112,0.99113812,52.5163,127.922,231.4302
28082,CHINASAT 20,EGO,25249.84478565,1 28082U 03052A   25249.84478565 -.00000293  00000-0  00000-0 0 37355,2 28082   9.8415  52.5060 0006154 128.9571 255.4631  0.99113399 79585,9.8415,0.0006154,0.99113399,52.506,128.9571,255.4631
28082,CHINASAT 20,EGO,25250.86388637,1 28082U 03052A   25250.86388637 -.00000294  00000-0  00000-0 0 37406,2 28082   9.8439  52.4964 0006192 129.9449 258.1138  0.99112966 79592,9.8439,0.0006192,0.99112966,52.4964,129.9449,258.1138
28082,CHINASAT 20,EGO,25251.26154329,1 28082U 03052A   25251.26154329 -.00000293  00000-0  00000-0 0 37410,2 28082   9.8449  52.4927 0006205 130.3116  39.6396  0.99112811 79591,9.8449,0.0006205,0.99112811,52.4927,130.3116,39.6396
28082,CHINASAT 20,EGO,25251.51463807,1 28082U 03052A   25251.51463807 -.00000292  00000-0  00000-0 0 37422,2 28082   9.8455  52.4902 0006221 130.5778 129.6832  0.99112681 79595,9.8455,0.0006221,0.99112681,52.4902,130.5778,129.6832
28082,CHINASAT 20,EGO,25251.89686941,1 28082U 03052A   25251.89686941 -.00000290  00000-0  00000-0 0 37461,2 28082   9.8464  52.4867 0006224 130.9422 265.7068  0.99112488 79608,9.8464,0.0006224,0.99112488,52.4867,130.9422,265.7068
28082,CHINASAT 20,EGO,25252.25994422,1 28082U 03052A   25252.25994422 -.00000287  00000-0  00000-0 0 37475,2 28082   9.8474  52.4834 0006233 131.2545  34.9466  0.99112353 79602,9.8474,0.0006233,0.99112353,52.4834,131.2545,34.9466
28082,CHINASAT 20,EGO,25252.83029735,1 28082U 03052A   25252.83029735 -.00000283  00000-0  00000-0 0 37516,2 28082   9.8487  52.4782 0006251 131.8333 237.8809  0.99112045 79613,9.8487,0.0006251,0.99112045,52.4782,131.8333,237.8809
28082,CHINASAT 20,EGO,25253.32945814,1 28082U 03052A   25253.32945814 -.00000278  00000-0  00000-0 0 37532,2 28082   9.8500  52.4737 0006256 132.2722  55.5513  0.99111830 79619,9.85,0.0006256,0.9911183,52.4737,132.2722,55.5513
28082,CHINASAT 20,EGO,25253.82864546,1 28082U 03052A   25253.82864546 -.00000272  00000-0  00000-0 0 37544,2 28082   9.8512  52.4691 0006265 132.7228 233.2194  0.99111552 79629,9.8512,0.0006265,0.99111552,52.4691,132.7228,233.2194
28082,CHINASAT 20,EGO,25254.80181010,1 28082U 03052A   25254.80181010 -.00000259  00000-0  00000-0 0 37591,2 28082   9.8536  52.4603 0006272 133.5335 219.6489  0.99111056 79628,9.8536,0.0006272,0.99111056,52.4603,133.5335,219.6489
28082,CHINASAT 20,EGO,25255.62994829,1 28082U 03052A   25255.62994829 -.00000245  00000-0  00000-0 0 37632,2 28082   9.8557  52.4527 0006264 134.1122 154.5618  0.99110668 79638,9.8557,0.0006264,0.99110668,52.4527,134.1122,154.5618
28082,CHINASAT 20,EGO,25255.82534008,1 28082U 03052A   25255.82534008 -.00000241  00000-0  00000-0 0 37651,2 28082   9.8561  52.4511 0006262 134.2439 224.1483  0.99110568 79639,9.8561,0.0006262,0.99110568,52.4511,134.2439,224.1483
28082,CHINASAT 20,EGO,25256.81512003,1 28082U 03052A   25256.81512003 -.00000222  00000-0  00000-0 0 37673,2 28082   9.8586  52.4423 0006241 134.8101 216.7473  0.99110093 79647,9.8586,0.0006241,0.99110093,52.4423,134.8101,216.7473
28082,CHINASAT 20,EGO,25257.39403737,1 28082U 03052A   25257.39403737 -.00000209  00000-0  00000-0 0 37697,2 28082   9.8600  52.4372 0006221 135.0640  63.0573  0.99109855 79655,9.86,0.0006221,0.99109855,52.4372,135.064,63.0573
28082,CHINASAT 20,EGO,25257.91214213,1 28082U 03052A   25257.91214213 -.00000196  00000-0  00000-0 0 37712,2 28082   9.8613  52.4327 0006208 135.2334 247.7525  0.99109589 79669,9.8613,0.0006208,0.99109589,52.4327,135.2334,247.7525
28082,CHINASAT 20,EGO,25258.39242191,1 28082U 03052A   25258.39242191 -.00000184  00000-0  00000-0 0 37730,2 28082   9.8624  52.4286 0006189 135.3370  59.0170  0.99109404 79660,9.8624,0.0006189,0.99109404,52.4286,135.337,59.017
28082,CHINASAT 20,EGO,25258.87001285,1 28082U 03052A   25258.87001285 -.00000172  00000-0  00000-0 0    18,2 28082   9.8636  52.4244 0006175 135.3862 229.3754  0.99109132 79677,9.8636,0.0006175,0.99109132,52.4244,135.3862,229.3754
28082,CHINASAT 20,EGO,25259.58871178,1 28082U 03052A   25259.58871178 -.00000152  00000-0  00000-0 0    11,2 28082   9.8653  52.4181 0006148 135.4348 125.7639  0.99108890 79677,9.8653,0.0006148,0.9910889,52.4181,135.4348,125.7639
28082,CHINASAT 20,EGO,25259.89296355,1 28082U 03052A   25259.89296355 -.00000143  00000-0  00000-0 0    13,2 28082   9.8660  52.4156 0006142 135.5077 234.2497  0.99108738 79681,9.866,0.0006142,0.99108738,52.4156,135.5077,234.2497
28082,CHINASAT 20,EGO,25260.88817087,1 28082U 03052A   25260.88817087 -.00000114  00000-0  00000-0 0    13,2 28082   9.8682  52.4070 0006108 135.4400 229.4128  0.99108420 79697,9.8682,0.0006108,0.9910842,52.407,135.44,229.4128
28082,CHINASAT 20,EGO,25261.88650584,1 28082U 03052A   25261.88650584 -.00000083  00000-0  00000-0 0    16,2 28082   9.8704  52.3982 0006076 135.3079 225.7551  0.99108132 79709,9.8704,0.0006076,0.99108132,52.3982,135.3079,225.7551
28082,CHINASAT 20,EGO,25262.38577082,1 28082U 03052A   25262.38577082 -.00000067  00000-0  00000-0 0    15,2 28082   9.8715  52.3937 0006061 135.3375  43.8655  0.99108047 79703,9.8715,0.0006061,0.99108047,52.3937,135.3375,43.8655
28082,CHINASAT 20,EGO,25262.88488302,1 28082U 03052A   25262.88488302 -.00000052  00000-0  00000-0 0    10,2 28082   9.8726  52.3892 0006048 135.1170 222.1708  0.99107932 79704,9.8726,0.0006048,0.99107932,52.3892,135.117,222.1708
28082,CHINASAT 20,EGO,25263.88324144,1 28082U 03052A   25263.88324144 -.00000022  00000-0  00000-0 0    11,2 28082   9.8747  52.3802 0006024 134.8948 218.6104  0.99107795 79719,9.8747,0.0006024,0.99107795,52.3802,134.8948,218.6104
28082,CHINASAT 20,EGO,25263.95441073,1 28082U 03052A   25263.95441073 -.00000020  00000-0  00000-0 0    18,2 28082   9.8748  52.3795 0006023 134.8942 244.0043  0.99107771 79724,9.8748,0.0006023,0.99107771,52.3795,134.8942,244.0043
28082,CHINASAT 20,EGO,25264.45359934,1 28082U 03052A   25264.45359934 -.00000006  00000-0  00000-0 0    12,2 28082   9.8759  52.3749 0006012 134.9407  62.0697  0.99107708 79723,9.8759,0.0006012,0.99107708,52.3749,134.9407,62.0697
28082,CHINASAT 20,EGO,25264.95277185,1 28082U 03052A   25264.95277185  .00000007  00000-0  00000-0 0    14,2 28082   9.8769  52.3704 0006006 134.7103 240.4060  0.99107686 79731,9.8769,0.0006006,0.99107686,52.3704,134.7103,240.406
28082,CHINASAT 20,EGO,25265.88815811,1 28082U 03052A   25265.88815811  .00000030  00000-0  00000-0 0    17,2 28082   9.8788  52.3617 0005996 134.5418 214.3227  0.99107666 79732,9.8788,0.0005996,0.99107666,52.3617,134.5418,214.3227
28082,CHINASAT 20,EGO,25266.00495419,1 28082U 03052A   25266.00495419  .00000032  00000-0  00000-0 0    12,2 28082   9.8791  52.3606 0005997 134.5574 255.9801  0.99107653 79744,9.8791,0.0005997,0.99107653,52.3606,134.5574,255.9801
28082,CHINASAT 20,EGO,25266.79071572,1 28082U 03052A   25266.79071572  .00000048  00000-0  00000-0 0  8079,2 28082   9.8807  52.3533 0005992 134.4715 176.4278  0.99107693 79741,9.8807,0.0005992,0.99107693,52.3533,134.4715,176.4278
28082,CHINASAT 20,EGO,25267.94767666,1 28082U 03052A   25267.94767666  .00000067  00000-0  00000-0 0  8108,2 28082   9.8830  52.3424 0005997 134.3039 229.4025  0.99107806 79766,9.883,0.0005997,0.99107806,52.3424,134.3039,229.4025
28082,CHINASAT 20,EGO,25268.12967726,1 28082U 03052A   25268.12967726  .00000070  00000-0  00000-0 0  8113,2 28082   9.8834  52.3408 0006001 134.2746 294.3701  0.99107828 79769,9.8834,0.0006001,0.99107828,52.3408,134.2746,294.3701
28082,CHINASAT 20,EGO,25268.94348713,1 28082U 03052A   25268.94348713  .00000079  00000-0  00000-0 0  8133,2 28082   9.8851  52.3330 0006008 134.3115 224.7037  0.99107982 79760,9.8851,0.0006008,0.99107982,52.333,134.3115,224.7037
28082,CHINASAT 20,EGO,25269.94951174,1 28082U 03052A   25269.94951174  .00000085  00000-0  00000-0 0    11,2 28082   9.8871  52.3235 0006026 134.4427 223.5261  0.99108177 79777,9.8871,0.0006026,0.99108177,52.3235,134.4427,223.5261
